OBJECT_NAME,OBJECT_ID,EPOCH,MEAN_MOTION,ECCENTRICITY,INCLINATION,RA_OF_ASC_NODE,ARG_OF_PERICENTER,MEAN_ANOMALY,EPHEMERIS_TYPE,CLASSIFICATION_TYPE,NORAD_CAT_ID,ELEMENT_SET_NO,REV_AT_EPOCH,BSTAR,MEAN_MOTION_DOT,MEAN_MOTION_DDOT
KAZEOSAT 2,2014-033A,2026-06-04T20:03:23.340384,14.85453839,.000901,97.5409,356.0998,10.4052,349.7348,0,U,40010,999,64712,.68825E-4,.544E-5,0
HODOYOSHI-4,2014-033B,2026-06-04T19:06:38.772576,14.88098957,.0023531,97.5448,341.2172,350.5792,9.4980,0,U,40011,999,64696,.19556E-3,.1755E-4,0
DEIMOS-2,2014-033D,2026-06-04T20:34:19.415424,14.93688660,.0001922,97.5836,30.7783,59.1154,301.0255,0,U,40013,999,63588,.1747E-3,.1793E-4,0
HODOYOSHI-3,2014-033F,2026-06-04T12:29:34.232640,14.85361735,.0033779,97.6408,319.0722,38.5097,321.8519,0,U,40015,999,64574,.15614E-3,.1304E-4,0
SPOT 7,2014-034A,2026-06-04T20:29:03.223392,14.60947243,.0001171,98.0630,218.6623,83.2305,276.9029,0,U,40053,999,63533,.11514E-3,.519E-5,0
SKYSAT-B,2014-037D,2026-06-03T14:36:56.602944,14.87990525,.0004889,98.3831,112.8009,336.4365,23.6625,0,U,40072,999,64394,.18569438E-3,.1643E-4,0
WORLDVIEW-3 (WV-3),2014-048A,2026-06-04T15:13:44.213664,14.85001171,.0001907,97.8567,230.6407,45.3894,314.7476,0,U,40115,999,64004,.13606E-3,.1107E-4,0
GAOFEN-2,2014-049A,2026-06-04T21:05:44.371392,14.80886319,.0005896,98.0110,220.0973,275.9442,84.1098,0,U,40118,999,63741,.13411E-3,.983E-5,0
YAOGAN-21,2014-053A,2026-06-04T20:05:28.846752,15.26183718,.0009556,97.1479,196.6039,129.0181,231.1910,0,U,40143,999,65307,.29002E-3,.744E-4,0
YAOGAN-22,2014-063A,2026-06-04T06:10:05.452320,13.15530670,.0006044,100.7709,306.3162,214.9826,145.0889,0,U,40275,999,55811,-.3825E-4,-.61E-6,0
ASNARO,2014-070A,2026-06-04T18:39:44.462016,15.19927087,.0004004,97.3449,232.2295,164.9559,195.1796,0,U,40298,999,64212,.40671E-3,.868E-4,0
YAOGAN-24,2014-072A,2026-06-04T21:09:13.207104,14.76206792,.0012878,98.1477,293.1160,307.1347,52.8685,0,U,40310,999,62190,.13113E-3,.855E-5,0
CBERS 4,2014-079A,2026-06-04T20:08:40.606368,14.35505566,.0002073,98.3533,213.0577,76.2975,283.8442,0,U,40336,999,60218,.59201E-4,.128E-5,0
YAOGAN-26,2014-088A,2026-06-04T21:49:08.793984,15.46841424,.0006722,97.0646,156.4103,94.4813,265.7206,0,U,40362,999,63580,.57637E-3,.28941E-3,0
SMAP,2015-003A,2026-06-04T16:53:22.170048,14.63355411,.0001258,98.1276,162.9752,90.6068,269.5278,0,U,40376,999,60579,.11366E-3,.54E-5,0
KOMPSAT-3A,2015-014A,2026-06-04T21:01:45.403680,15.53419316,.0055379,97.6888,146.3444,219.5673,140.1532,0,U,40536,999,61990,.41895E-3,.28291E-3,0
SENTINEL-2A,2015-028A,2026-06-04T20:05:22.778016,14.30819970,.0001059,98.5683,230.8634,85.5347,274.5957,0,U,40697,999,57196,.65609E-4,.128E-5,0
GAOFEN-8,2015-030A,2026-06-04T20:27:41.372352,15.45496168,.0007802,97.6908,348.4871,233.9771,126.0754,0,U,40701,999,60954,.55226E-3,.26468E-3,0
CARBONITE 1 (CBNT-1),2015-032D,2026-06-04T20:09:20.327040,14.83547619,.0014138,97.6500,334.4240,341.2724,18.7968,0,U,40718,999,58751,.22647E-3,.1817E-4,0
YAOGAN-27,2015-040A,2026-06-04T20:45:55.553184,13.16069605,.0007444,100.1148,142.7831,241.3690,118.6676,0,U,40878,999,51604,.81174E-3,.266E-5,0
GAOFEN-9 01,2015-047A,2026-06-04T20:22:32.839680,14.82860243,.0027409,97.6286,192.1040,177.3565,182.7799,0,U,40894,999,57836,.15365E-3,.1201E-4,0
YAOGAN-28,2015-064A,2026-06-04T20:59:43.540800,15.27254455,.0009602,97.3065,294.3898,228.7803,131.2609,0,U,41026,999,58880,.30023E-3,.7956E-4,0
YAOGAN-29,2015-069A,2026-06-04T19:56:48.181344,14.83073745,.0002963,98.0027,184.4440,74.2290,285.9250,0,U,41038,999,56879,.60316E-4,.437E-5,0
KENT RIDGE 1,2015-077B,2026-05-31T22:08:18.478176,15.23022815,.00083865,14.9811,26.9327,8.7098,351.3369,0,U,41167,999,57861,.16664618E-3,.4809E-4,0
GAOFEN-4,2015-083A,2026-06-04T20:09:38.599776,1.00270188,.0004307,0.3257,83.7899,109.1114,108.4897,0,U,41194,999,3840,0,-.322E-5,0
JASON-3,2016-002A,2026-06-04T17:32:20.562720,12.87627753,.0008604,66.0389,152.0236,273.2826,86.7208,0,U,41240,999,48564,.23587E-4,-.56E-6,0
SENTINEL-3A,2016-011A,2026-06-04T17:36:09.973728,14.26736527,.0001307,98.6251,223.2954,105.8044,254.3280,0,U,41335,999,53628,.76601E-4,.142E-5,0
ZIYUAN 3-02 (ZY 3-02),2016-033A,2026-06-04T21:22:36.964704,15.21358007,.0011935,97.3833,231.8998,338.0973,21.9751,0,U,41556,999,55611,.30117E-3,.6693E-4,0
CARTOSAT-2C,2016-040A,2026-06-04T08:22:13.296864,15.19210003,.0009538,97.4487,215.5025,171.8850,188.2540,0,U,41599,999,55176,.16985E-3,.3511E-4,0
SKYSAT-C1,2016-040C,2026-06-04T15:28:14.442240,15.36078665,.000431,96.9565,188.0459,82.8973,277.2762,0,U,41601,999,55594,.28577E-3,.9973E-4,0
LAPAN-A3,2016-040E,2026-06-04T20:31:04.251648,15.33024305,.0012007,97.1488,152.4070,65.0358,295.2131,0,U,41603,999,55292,.12525E-3,.3928E-4,0
