KAZEOSAT 2              
1 40010U 14033A   26155.83568681  .00000544  00000+0  68825-4 0  9995
2 40010  97.5409 356.0998 0009010  10.4052 349.7348 14.85453839647121
HODOYOSHI-4             
1 40011U 14033B   26155.79628209  .00001755  00000+0  19556-3 0  9995
2 40011  97.5448 341.2172 0023531 350.5792   9.4980 14.88098957646960
DEIMOS-2                
1 40013U 14033D   26155.85716916  .00001793  00000+0  17470-3 0  9992
2 40013  97.5836  30.7783 0001922  59.1154 301.0255 14.93688660635882
HODOYOSHI-3             
1 40015U 14033F   26155.52053510  .00001304  00000+0  15614-3 0  9998
2 40015  97.6408 319.0722 0033779  38.5097 321.8519 14.85361735645749
SPOT 7                  
1 40053U 14034A   26155.85350953  .00000519  00000+0  11514-3 0  9990
2 40053  98.0630 218.6623 0001171  83.2305 276.9029 14.60947243635334
SKYSAT-B                
1 40072U 14037D   26154.60898846  .00001643  00000+0  18569-3 0  9990
2 40072  98.3831 112.8009 0004889 336.4365  23.6625 14.87990525643947
WORLDVIEW-3 (WV-3)      
1 40115U 14048A   26155.63453951  .00001107  00000+0  13606-3 0  9990
2 40115  97.8567 230.6407 0001907  45.3894 314.7476 14.85001171640041
GAOFEN-2                
1 40118U 14049A   26155.87898578  .00000983  00000+0  13411-3 0  9993
2 40118  98.0110 220.0973 0005896 275.9442  84.1098 14.80886319637418
YAOGAN-21               
1 40143U 14053A   26155.83713943  .00007440  00000+0  29002-3 0  9992
2 40143  97.1479 196.6039 0009556 129.0181 231.1910 15.26183718653072
YAOGAN-22               
1 40275U 14063A   26155.25700755 -.00000061  00000+0 -38250-4 0  9992
2 40275 100.7709 306.3162 0006044 214.9826 145.0889 13.15530670558117
ASNARO                  
1 40298U 14070A   26155.77759794  .00008680  00000+0  40671-3 0  9991
2 40298  97.3449 232.2295 0004004 164.9559 195.1796 15.19927087642125
YAOGAN-24               
1 40310U 14072A   26155.88140286  .00000855  00000+0  13113-3 0  9997
2 40310  98.1477 293.1160 0012878 307.1347  52.8685 14.76206792621905
CBERS 4                 
1 40336U 14079A   26155.83935887  .00000128  00000+0  59201-4 0  9998
2 40336  98.3533 213.0577 0002073  76.2975 283.8442 14.35505566602180
YAOGAN-26               
1 40362U 14088A   26155.90912956  .00028941  00000+0  57637-3 0  9990
2 40362  97.0646 156.4103 0006722  94.4813 265.7206 15.46841424635804
SMAP                    
1 40376U 15003A   26155.70372882  .00000540  00000+0  11366-3 0  9993
2 40376  98.1276 162.9752 0001258  90.6068 269.5278 14.63355411605791
KOMPSAT-3A              
1 40536U 15014A   26155.87621995  .00028291  00000+0  41895-3 0  9996
2 40536  97.6888 146.3444 0055379 219.5673 140.1532 15.53419316619903
SENTINEL-2A             
1 40697U 15028A   26155.83706919  .00000128  00000+0  65609-4 0  9994
2 40697  98.5683 230.8634 0001059  85.5347 274.5957 14.30819970571969
GAOFEN-8                
1 40701U 15030A   26155.85256218  .00026468  00000+0  55226-3 0  9995
2 40701  97.6908 348.4871 0007802 233.9771 126.0754 15.45496168609545
CARBONITE 1 (CBNT-1)    
1 40718U 15032D   26155.83981860  .00001817  00000+0  22647-3 0  9993
2 40718  97.6500 334.4240 0014138 341.2724  18.7968 14.83547619587512
YAOGAN-27               
1 40878U 15040A   26155.86522631  .00000266  00000+0  81174-3 0  9996
2 40878 100.1148 142.7831 0007444 241.3690 118.6676 13.16069605516042
GAOFEN-9 01             
1 40894U 15047A   26155.84899120  .00001201  00000+0  15365-3 0  9998
2 40894  97.6286 192.1040 0027409 177.3565 182.7799 14.82860243578368
YAOGAN-28               
1 41026U 15064A   26155.87480950  .00007956  00000+0  30023-3 0  9996
2 41026  97.3065 294.3898 0009602 228.7803 131.2609 15.27254455588806
YAOGAN-29               
1 41038U 15069A   26155.83111321  .00000437  00000+0  60316-4 0  9999
2 41038  98.0027 184.4440 0002963  74.2290 285.9250 14.83073745568791
KENT RIDGE 1            
1 41167U 15077B   26151.92243609  .00004809  00000+0  16665-3 0  9996
2 41167  14.9811  26.9327 0008386   8.7098 351.3369 15.23022815578617
GAOFEN-4                
1 41194U 15083A   26155.84003009 -.00000322  00000+0  00000+0 0  9995
2 41194   0.3257  83.7899 0004307 109.1114 108.4897  1.00270188 38402
JASON-3                 
1 41240U 16002A   26155.73079355 -.00000056  00000+0  23587-4 0  9998
2 41240  66.0389 152.0236 0008604 273.2826  86.7208 12.87627753485648
SENTINEL-3A             
1 41335U 16011A   26155.73344877  .00000142  00000+0  76601-4 0  9997
2 41335  98.6251 223.2954 0001307 105.8044 254.3280 14.26736527536280
ZIYUAN 3-02 (ZY 3-02)   
1 41556U 16033A   26155.89070561  .00006693  00000+0  30117-3 0  9997
2 41556  97.3833 231.8998 0011935 338.0973  21.9751 15.21358007556113
CARTOSAT-2C             
1 41599U 16040A   26155.34876501  .00003511  00000+0  16985-3 0  9993
2 41599  97.4487 215.5025 0009538 171.8850 188.2540 15.19210003551768
SKYSAT-C1               
1 41601U 16040C   26155.64461160  .00009973  00000+0  28577-3 0  9999
2 41601  96.9565 188.0459 0004310  82.8973 277.2762 15.36078665555942
LAPAN-A3                
1 41603U 16040E   26155.85491032  .00003928  00000+0  12525-3 0  9995
2 41603  97.1488 152.4070 0012007  65.0358 295.2131 15.33024305552921
